start=new Date('2022-12-23T00:00:00.000Z').valueOf();
sats=[{"OBJECT_TYPE":"PAYLOAD","SITE":"AFWTR","TLE_LINE2":"2 53059  97.6546 175.1892 0000675  68.3085 291.8211 15.01253535 24912","PERIOD":"95.920","EPOCH":"2022-12-22T14:24:16.781472","CLASSIFICATION_TYPE":"U","OBJECT_NAME":"STARLINK-4320","TIME_SYSTEM":"UTC","MEAN_ANOMALY":"291.8211","OBJECT_ID":"2022-077S","ELEMENT_SET_NO":"999","REF_FRAME":"TEME","BSTAR":"0.00000759720000","RA_OF_ASC_NODE":"175.1892","RCS_SIZE":"LARGE","PERIAPSIS":"562.563","CENTER_NAME":"EARTH","EPHEMERIS_TYPE":"0","MEAN_MOTION_DDOT":"0.0000000000000","TLE_LINE1":"1 53059U 22077S   22356.60019423  .00000039  00000-0  75972-5 0  9990","INCLINATION":"97.6546","DECAY_DATE":null,"GP_ID":"221238770","MEAN_MOTION":"15.01253535","MEAN_ELEMENT_THEORY":"SGP4","ARG_OF_PERICENTER":"68.3085","APOAPSIS":"563.500","COUNTRY_CODE":"US","ECCENTRICITY":"0.00006750","REV_AT_EPOCH":"2491","LAUNCH_DATE":"2022-07-11","MEAN_MOTION_DOT":"0.00000039","NORAD_CAT_ID":"53059","FILE":"3719655","SEMIMAJOR_AXIS":"6941.167"},{"BSTAR":"0.00013021000000","OBJECT_ID":"2022-077T","ELEMENT_SET_NO":"999","REF_FRAME":"TEME","CLASSIFICATION_TYPE":"U","TIME_SYSTEM":"UTC","OBJECT_NAME":"STARLINK-4305","MEAN_ANOMALY":"208.9524","EPOCH":"2022-12-22T17:43:53.646240","TLE_LINE2":"2 53060  97.6550 175.3265 0001443 151.1780 208.9524 15.01246009 24938","PERIOD":"95.920","SITE":"AFWTR","OBJECT_TYPE":"PAYLOAD","REV_AT_EPOCH":"2493","LAUNCH_DATE":"2022-07-11","MEAN_MOTION_DOT":"0.00001613","NORAD_CAT_ID":"53060","SEMIMAJOR_AXIS":"6941.190","FILE":"3719655","COUNTRY_CODE":"US","ECCENTRICITY":"0.00014430","ARG_OF_PERICENTER":"151.1780","APOAPSIS":"564.057","TLE_LINE1":"1 53060U 22077T   22356.73881535  .00001613  00000-0  13021-3 0  9991","INCLINATION":"97.6550","MEAN_MOTION":"15.01246009","GP_ID":"221238978","DECAY_DATE":null,"MEAN_ELEMENT_THEORY":"SGP4","MEAN_MOTION_DDOT":"0.0000000000000","EPHEMERIS_TYPE":"0","RA_OF_ASC_NODE":"175.3265","RCS_SIZE":"LARGE","PERIAPSIS":"562.053","CENTER_NAME":"EARTH"},{"RCS_SIZE":"LARGE","CENTER_NAME":"EARTH","PERIAPSIS":"562.547","RA_OF_ASC_NODE":"175.0565","EPHEMERIS_TYPE":"0","MEAN_MOTION_DDOT":"0.0000000000000","INCLINATION":"97.6543","GP_ID":"221237942","MEAN_ELEMENT_THEORY":"SGP4","DECAY_DATE":null,"MEAN_MOTION":"15.01260040","TLE_LINE1":"1 53061U 22077U   22356.46479184 -.00002247  00000-0 -17040-3 0  9996","ARG_OF_PERICENTER":"8.2879","APOAPSIS":"563.477","ECCENTRICITY":"0.00006700","COUNTRY_CODE":"US","NORAD_CAT_ID":"53061","MEAN_MOTION_DOT":"-0.00002247","FILE":"3719655","SEMIMAJOR_AXIS":"6941.147","REV_AT_EPOCH":"2489","LAUNCH_DATE":"2022-07-11","OBJECT_TYPE":"PAYLOAD","SITE":"AFWTR","PERIOD":"95.919","TLE_LINE2":"2 53061  97.6543 175.0565 0000670   8.2879 351.8356 15.01260040 24890","EPOCH":"2022-12-22T11:09:18.014976","MEAN_ANOMALY":"351.8356","CLASSIFICATION_TYPE":"U","TIME_SYSTEM":"UTC","OBJECT_NAME":"STARLINK-4308","ELEMENT_SET_NO":"999","REF_FRAME":"TEME","OBJECT_ID":"2022-077U","BSTAR":"-0.00017040000000"},{"EPOCH":"2022-12-22T12:50:37.616640","OBJECT_NAME":"STARLINK-4311","CLASSIFICATION_TYPE":"U","TIME_SYSTEM":"UTC","MEAN_ANOMALY":"231.0266","OBJECT_ID":"2022-077V","REF_FRAME":"TEME","ELEMENT_SET_NO":"999","BSTAR":"-0.00001137400000","OBJECT_TYPE":"PAYLOAD","SITE":"AFWTR","TLE_LINE2":"2 53062  97.6563 175.1257 0000826 129.1032 231.0266 15.01239933 24907","PERIOD":"95.921","ARG_OF_PERICENTER":"129.1032","APOAPSIS":"563.647","COUNTRY_CODE":"US","ECCENTRICITY":"0.00008260","REV_AT_EPOCH":"2490","LAUNCH_DATE":"2022-07-11","MEAN_MOTION_DOT":"-0.00000205","NORAD_CAT_ID":"53062","FILE":"3719655","SEMIMAJOR_AXIS":"6941.209","RA_OF_ASC_NODE":"175.1257","RCS_SIZE":"LARGE","PERIAPSIS":"562.500","CENTER_NAME":"EARTH","EPHEMERIS_TYPE":"0","MEAN_MOTION_DDOT":"0.0000000000000","TLE_LINE1":"1 53062U 22077V   22356.53515760 -.00000205  00000-0 -11374-4 0  9993","INCLINATION":"97.6563","GP_ID":"221238149","DECAY_DATE":null,"MEAN_ELEMENT_THEORY":"SGP4","MEAN_MOTION":"15.01239933"},{"OBJECT_ID":"2022-077W","ELEMENT_SET_NO":"999","REF_FRAME":"TEME","BSTAR":"-0.00004466800000","EPOCH":"2022-12-22T17:57:49.305312","CLASSIFICATION_TYPE":"U","TIME_SYSTEM":"UTC","OBJECT_NAME":"STARLINK-4307","MEAN_ANOMALY":"196.2981","TLE_LINE2":"2 53063  97.6522 175.3812 0003400 163.8352 196.2981 15.00447539 24945","PERIOD":"95.971","OBJECT_TYPE":"PAYLOAD","SITE":"AFWTR","LAUNCH_DATE":"2022-07-11","REV_AT_EPOCH":"2494","SEMIMAJOR_AXIS":"6943.652","FILE":"3719655","MEAN_MOTION_DOT":"-0.00000620","NORAD_CAT_ID":"53063","APOAPSIS":"567.878","ARG_OF_PERICENTER":"163.8352","COUNTRY_CODE":"US","ECCENTRICITY":"0.00034000","MEAN_MOTION_DDOT":"0.0000000000000","TLE_LINE1":"1 53063U 22077W   22356.74848733 -.00000620  00000-0 -44668-4 0  9999","DECAY_DATE":null,"GP_ID":"221239185","MEAN_ELEMENT_THEORY":"SGP4","MEAN_MOTION":"15.00447539","INCLINATION":"97.6522","RA_OF_ASC_NODE":"175.3812","CENTER_NAME":"EARTH","PERIAPSIS":"563.156","RCS_SIZE":"LARGE","EPHEMERIS_TYPE":"0"},{"RA_OF_ASC_NODE":"175.1224","CENTER_NAME":"EARTH","PERIAPSIS":"562.440","RCS_SIZE":"LARGE","EPHEMERIS_TYPE":"0","MEAN_MOTION_DDOT":"0.0000000000000","TLE_LINE1":"1 53064U 22077X   22356.53329030 -.00000446  00000-0 -30114-4 0  9998","GP_ID":"221239392","DECAY_DATE":null,"MEAN_MOTION":"15.01262485","MEAN_ELEMENT_THEORY":"SGP4","INCLINATION":"97.6549","APOAPSIS":"563.569","ARG_OF_PERICENTER":"74.8715","COUNTRY_CODE":"US","ECCENTRICITY":"0.00008130","LAUNCH_DATE":"2022-07-11","REV_AT_EPOCH":"2490","SEMIMAJOR_AXIS":"6941.139","FILE":"3719655","MEAN_MOTION_DOT":"-0.00000446","NORAD_CAT_ID":"53064","OBJECT_TYPE":"PAYLOAD","SITE":"AFWTR","TLE_LINE2":"2 53064  97.6549 175.1224 0000813  74.8715 285.2599 15.01262485 24905","PERIOD":"95.919","EPOCH":"2022-12-22T12:47:56.281920","CLASSIFICATION_TYPE":"U","TIME_SYSTEM":"UTC","OBJECT_NAME":"STARLINK-4313","MEAN_ANOMALY":"285.2599","OBJECT_ID":"2022-077X","REF_FRAME":"TEME","ELEMENT_SET_NO":"999","BSTAR":"-0.00003011400000"},{"ECCENTRICITY":"0.00017550","COUNTRY_CODE":"US","APOAPSIS":"564.227","ARG_OF_PERICENTER":"26.0512","SEMIMAJOR_AXIS":"6941.144","FILE":"3719655","NORAD_CAT_ID":"53065","MEAN_MOTION_DOT":"0.00000921","LAUNCH_DATE":"2022-07-11","REV_AT_EPOCH":"2490","EPHEMERIS_TYPE":"0","PERIAPSIS":"561.791","CENTER_NAME":"EARTH","RCS_SIZE":"LARGE","RA_OF_ASC_NODE":"175.1192","GP_ID":"221238356","DECAY_DATE":null,"MEAN_MOTION":"15.01260834","MEAN_ELEMENT_THEORY":"SGP4","INCLINATION":"97.6568","TLE_LINE1":"1 53065U 22077Y   22356.52774022  .00000921  00000-0  76296-4 0  9990","MEAN_MOTION_DDOT":"0.0000000000000","MEAN_ANOMALY":"334.0800","CLASSIFICATION_TYPE":"U","TIME_SYSTEM":"UTC","OBJECT_NAME":"STARLINK-4312","EPOCH":"2022-12-22T12:39:56.755008","BSTAR":"0.00007629600000","ELEMENT_SET_NO":"999","REF_FRAME":"TEME","OBJECT_ID":"2022-077Y","SITE":"AFWTR","OBJECT_TYPE":"PAYLOAD","PERIOD":"95.919","TLE_LINE2":"2 53065  97.6568 175.1192 0001755  26.0512 334.0800 15.01260834 24905"},{"GP_ID":"221238563","MEAN_ELEMENT_THEORY":"SGP4","DECAY_DATE":null,"MEAN_MOTION":"15.01266388","INCLINATION":"97.6563","TLE_LINE1":"1 53066U 22077Z   22356.52958629  .00000375  00000-0  33805-4 0  9990","MEAN_MOTION_DDOT":"0.0000000000000","EPHEMERIS_TYPE":"0","CENTER_NAME":"EARTH","PERIAPSIS":"561.764","RCS_SIZE":"LARGE","RA_OF_ASC_NODE":"175.1194","FILE":"3719655","SEMIMAJOR_AXIS":"6941.127","NORAD_CAT_ID":"53066","MEAN_MOTION_DOT":"0.00000375","LAUNCH_DATE":"2022-07-11","REV_AT_EPOCH":"2490","ECCENTRICITY":"0.00017690","COUNTRY_CODE":"US","APOAPSIS":"564.220","ARG_OF_PERICENTER":"46.3598","PERIOD":"95.919","TLE_LINE2":"2 53066  97.6563 175.1194 0001769  46.3598 313.7773 15.01266388 24900","SITE":"AFWTR","OBJECT_TYPE":"PAYLOAD","BSTAR":"0.00003380500000","ELEMENT_SET_NO":"999","REF_FRAME":"TEME","OBJECT_ID":"2022-077Z","MEAN_ANOMALY":"313.7773","TIME_SYSTEM":"UTC","CLASSIFICATION_TYPE":"U","OBJECT_NAME":"STARLINK-4309","EPOCH":"2022-12-22T12:42:36.255456"},{"COUNTRY_CODE":"US","ECCENTRICITY":"0.00018230","APOAPSIS":"564.270","ARG_OF_PERICENTER":"26.3703","LAUNCH_DATE":"2022-07-11","REV_AT_EPOCH":"2489","FILE":"3719197","SEMIMAJOR_AXIS":"6941.139","MEAN_MOTION_DOT":"0.00000438","NORAD_CAT_ID":"53067","EPHEMERIS_TYPE":"0","RA_OF_ASC_NODE":"175.0567","PERIAPSIS":"561.739","CENTER_NAME":"EARTH","RCS_SIZE":"LARGE","TLE_LINE1":"1 53067U 22077AA  22356.45739526  .00000438  00000-0  38668-4 0  9998","GP_ID":"221202020","MEAN_MOTION":"15.01262435","DECAY_DATE":null,"MEAN_ELEMENT_THEORY":"SGP4","INCLINATION":"97.6600","MEAN_MOTION_DDOT":"0.0000000000000","CLASSIFICATION_TYPE":"U","TIME_SYSTEM":"UTC","OBJECT_NAME":"STARLINK-4306","MEAN_ANOMALY":"333.7613","EPOCH":"2022-12-22T10:58:38.950464","BSTAR":"0.00003866800000","OBJECT_ID":"2022-077AA","ELEMENT_SET_NO":"999","REF_FRAME":"TEME","SITE":"AFWTR","OBJECT_TYPE":"PAYLOAD","TLE_LINE2":"2 53067  97.6600 175.0567 0001823  26.3703 333.7613 15.01262435 24895","PERIOD":"95.919"},{"EPOCH":"2022-12-22T14:13:37.051680","CLASSIFICATION_TYPE":"U","OBJECT_NAME":"STARLINK-4325","TIME_SYSTEM":"UTC","MEAN_ANOMALY":"339.2676","OBJECT_ID":"2022-077AB","REF_FRAME":"TEME","ELEMENT_SET_NO":"999","BSTAR":"-0.00001649100000","OBJECT_TYPE":"PAYLOAD","SITE":"AFWTR","TLE_LINE2":"2 53068  97.6587 175.1869 0002214  20.8638 339.2676 15.01258435 24915","PERIOD":"95.920","ARG_OF_PERICENTER":"20.8638","APOAPSIS":"564.553","COUNTRY_CODE":"US","ECCENTRICITY":"0.00022140","REV_AT_EPOCH":"2491","LAUNCH_DATE":"2022-07-11","MEAN_MOTION_DOT":"-0.00000271","NORAD_CAT_ID":"53068","FILE":"3719655","SEMIMAJOR_AXIS":"6941.152","RA_OF_ASC_NODE":"175.1869","RCS_SIZE":"LARGE","CENTER_NAME":"EARTH","PERIAPSIS":"561.480","EPHEMERIS_TYPE":"0","MEAN_MOTION_DDOT":"0.0000000000000","TLE_LINE1":"1 53068U 22077AB  22356.59278995 -.00000271  00000-0 -16491-4 0  9999","INCLINATION":"97.6587","DECAY_DATE":null,"GP_ID":"221238979","MEAN_MOTION":"15.01258435","MEAN_ELEMENT_THEORY":"SGP4"}];
